{"type":"FeatureCollection","features":[{"id":"966ed8a7a80fa0ee238acf74ab37c8a7","type":"Feature","properties":{},"geometry":{"coordinates":[[[-51.2217583798795,-30.1814292556651],[-51.23847447997085,-30.18706215665609],[-51.32375492281142,-30.189266247620573],[-51.34245428901559,-30.167223118677057],[-51.338771075115716,-30.138069632893888],[-51.32495233847334,-30.081281811676817],[-51.312769414641934,-30.054555291845084],[-51.266293307681394,-30.046985166132053],[-51.24362740925153,-30.042570580430414],[-51.22691130916019,-30.04747566350993],[-51.239660877026665,-30.09945460626706],[-51.21359509383325,-30.136215658103623],[-51.20849526668664,-30.159245608383486],[-51.2217583798795,-30.1814292556651]]],"type":"Polygon"}}]}