{"type":"FeatureCollection","features":[{"id":"d80dbeb111940a43d403fcbe0a3051d1","type":"Feature","properties":{},"geometry":{"coordinates":[[[-51.202228774192065,-29.94365013552472],[-51.20151734734122,-29.987203997171257],[-51.213848746097,-30.02088350756317],[-51.24088296644632,-30.03340772510346],[-51.25202865378324,-30.032791816976136],[-51.26483433710632,-30.01225935611356],[-51.28238286610548,-29.983506769420565],[-51.30135424880643,-29.9637858968052],[-51.31249993614338,-29.95248571655103],[-51.313448505278586,-29.943239159163227],[-51.27787716271368,-29.931114592629868],[-51.24918294637828,-29.924948992181662],[-51.21764302263719,-29.927004234769647],[-51.202228774192065,-29.94365013552472]]],"type":"Polygon"}}]}