{"type":"FeatureCollection","features":[{"id":"05614d19155e145898dddd1a4afa8ad2","type":"Feature","properties":{},"geometry":{"coordinates":[[[138.76360299010514,-35.44729132944332],[138.743850426039,-35.53024633964662],[139.022465540231,-35.650012827622355],[139.14271360568324,-35.60579054754373],[139.11845607086553,-35.526016014582154],[139.03286161524466,-35.48652222623059],[138.95142560550113,-35.45067892260424],[138.85508853865383,-35.42159742652565],[138.76360299010514,-35.44729132944332]]],"type":"Polygon"}}]}