{"type":"FeatureCollection","features":[{"id":"6115a5c2748ec9c71b2a3fabe5b74c08","type":"Feature","properties":{},"geometry":{"coordinates":[[[139.19639680110157,-35.29676869652315],[138.94125424045274,-35.39731634969707],[138.8416339709866,-35.54382101918555],[139.16342935086345,-35.744173912945946],[139.22219814292242,-35.78197488845356],[139.36625335272612,-35.704027073672684],[139.421438681857,-35.6120204572102],[139.4407893816799,-35.46038660589744],[139.38417066738003,-35.43177737105011],[139.42215537444264,-35.32191701684743],[139.3770037415194,-35.299693034480455],[139.33185210859398,-35.34998068662986],[139.28383370532612,-35.31899315750231],[139.24943246119392,-35.29501352335861],[139.19639680110157,-35.29676869652315]]],"type":"Polygon"}}]}