{"type":"FeatureCollection","features":[{"id":"8a65213d1fe5c53d445eda70e66d20e3","type":"Feature","properties":{},"geometry":{"coordinates":[[[138.80171559340823,-35.519742611115554],[138.81617124863055,-35.647382580850106],[139.14865131872233,-35.81725243711883],[139.4033461964333,-35.6971517214553],[139.44740152663275,-35.51245876445158],[139.4246854969976,-35.33744832161411],[139.29733803133644,-35.28408443944965],[139.12868872041918,-35.29195080630538],[138.94351866067836,-35.40143855529009],[138.83957561599027,-35.423879233033844],[138.80171559340823,-35.519742611115554]]],"type":"Polygon"}}]}