{"type":"FeatureCollection","features":[{"id":"66a0cbb3837d3ca9ade6cd563251ff70","type":"Feature","properties":{},"geometry":{"coordinates":[[[6.830990627314293,46.95126235545368],[6.654662578163595,46.839780646114804],[6.614288398685687,46.79579997092293],[6.644775024006293,46.76815268710919],[6.774137190906288,46.79185122818242],[6.866421029714161,46.8437258707838],[6.944697500131554,46.90061758187397],[7.041101153171326,46.95632419940628],[7.071587778491875,46.98499893838783],[7.0641721128729955,47.006354435578146],[7.032861524706277,47.0277013985482],[6.986719605302994,47.02376970449248],[6.890315952261915,46.991743701612336],[6.859005364095225,46.97319355477143],[6.830990627314293,46.95126235545368]]],"type":"Polygon"}}]}