{"type":"FeatureCollection","features":[{"id":"c0a002ae0a1c6e669ca4518a4c4af7c8","type":"Feature","properties":{},"geometry":{"coordinates":[[[-52.13110308214655,-31.6072463301511],[-52.0117365921068,-31.334668023601196],[-51.71597488239195,-31.209181656429642],[-51.609585778177575,-31.092639453992362],[-51.53724118731145,-30.849992753142914],[-51.40319091600173,-30.593910447551032],[-51.25850173427031,-30.40140325927596],[-51.22020165675326,-30.324293834670698],[-51.0074234483254,-30.247123662062023],[-50.75634516237963,-30.30408846686494],[-50.6520838402501,-30.447272847080058],[-50.63080601940675,-30.64701189615343],[-50.720172866947394,-30.820760650949325],[-50.91805660078555,-30.959533781642016],[-50.97337893497635,-31.163674413680745],[-51.194668271741875,-31.440020063396858],[-51.315951850546725,-31.554320134838655],[-51.511707802300094,-31.679345447219532],[-51.67341924070601,-31.79516066262253],[-51.86066406412252,-31.889153813984386],[-51.97130873250572,-31.932502953260958],[-52.03301441295012,-31.98846535113686],[-52.194725851355244,-31.93430872412668],[-52.22238701845063,-31.782500427727385],[-52.13110308214655,-31.6072463301511]]],"type":"Polygon"}}]}